{
  "type": "FeatureCollection",
  "features": [
    {
      "type": "Feature",
      "properties": {
        "norad_id": 41948,
        "name": "CARTOSAT-2D",
        "group": "resource",
        "lat": -52.27439029409894,
        "lon": -131.27907479114546,
        "alt_km": 517.1528917451051,
        "timestamp": "2025-12-27T03:58:43.835538+00:00",
        "meta_object_name": "CARTOSAT-2D",
        "meta_object_id": "2017-008A",
        "meta_epoch": "2025-12-26T20:38:03.721920",
        "meta_mean_motion": 15.19201124,
        "meta_eccentricity": 0.0005405,
        "meta_inclination": 97.4367,
        "meta_ra_of_asc_node": 58.1404,
        "meta_arg_of_pericenter": 113.2926,
        "meta_mean_anomaly": 246.8877,
        "meta_ephemeris_type": 0,
        "meta_classification_type": "U",
        "meta_norad_cat_id": 41948,
        "meta_element_set_no": 999,
        "meta_rev_at_epoch": 49141,
        "meta_bstar": 0.00013988,
        "meta_mean_motion_dot": 2.877e-05,
        "meta_mean_motion_ddot": 0,
        "tle_line1": "1 41948U 17008A   25360.85976530  .00002877  00000+0  13988-3 0  9996",
        "tle_line2": "2 41948  97.4367  58.1404 0005405 113.2926 246.8877 15.19201124491411"
      },
      "geometry": {
        "type": "Point",
        "coordinates": [
          -131.27907479114546,
          -52.27439029409894
        ]
      }
    },
    {
      "type": "Feature",
      "properties": {
        "norad_id": 42063,
        "name": "SENTINEL-2B",
        "group": "resource",
        "lat": -68.93004077957242,
        "lon": 96.4485569679425,
        "alt_km": 797.0331672222001,
        "timestamp": "2025-12-27T03:58:43.835547+00:00",
        "meta_object_name": "SENTINEL-2B",
        "meta_object_id": "2017-013A",
        "meta_epoch": "2025-12-26T19:55:01.682112",
        "meta_mean_motion": 14.30816431,
        "meta_eccentricity": 0.0001175,
        "meta_inclination": 98.5694,
        "meta_ra_of_asc_node": 73.0769,
        "meta_arg_of_pericenter": 88.859,
        "meta_mean_anomaly": 271.2728,
        "meta_ephemeris_type": 0,
        "meta_classification_type": "U",
        "meta_norad_cat_id": 42063,
        "meta_element_set_no": 999,
        "meta_rev_at_epoch": 45999,
        "meta_bstar": 9.1669e-05,
        "meta_mean_motion_dot": 1.97e-06,
        "meta_mean_motion_ddot": 0,
        "tle_line1": "1 42063U 17013A   25360.82988058  .00000197  00000+0  91669-4 0  9992",
        "tle_line2": "2 42063  98.5694  73.0769 0001175  88.8590 271.2728 14.30816431459998"
      },
      "geometry": {
        "type": "Point",
        "coordinates": [
          96.4485569679425,
          -68.93004077957242
        ]
      }
    },
    {
      "type": "Feature",
      "properties": {
        "norad_id": 42767,
        "name": "CARTOSAT-2E",
        "group": "resource",
        "lat": 37.45206175699989,
        "lon": -115.68235918050993,
        "alt_km": 503.9073479542012,
        "timestamp": "2025-12-27T03:58:43.835557+00:00",
        "meta_object_name": "CARTOSAT-2E",
        "meta_object_id": "2017-036C",
        "meta_epoch": "2025-12-26T19:27:05.796000",
        "meta_mean_motion": 15.19210968,
        "meta_eccentricity": 0.0002631,
        "meta_inclination": 97.4535,
        "meta_ra_of_asc_node": 58.2116,
        "meta_arg_of_pericenter": 166.5771,
        "meta_mean_anomaly": 193.5534,
        "meta_ephemeris_type": 0,
        "meta_classification_type": "U",
        "meta_norad_cat_id": 42767,
        "meta_element_set_no": 999,
        "meta_rev_at_epoch": 47197,
        "meta_bstar": 0.00021442,
        "meta_mean_motion_dot": 4.446e-05,
        "meta_mean_motion_ddot": 0,
        "tle_line1": "1 42767U 17036C   25360.81048375  .00004446  00000+0  21442-3 0  9998",
        "tle_line2": "2 42767  97.4535  58.2116 0002631 166.5771 193.5534 15.19210968471979"
      },
      "geometry": {
        "type": "Point",
        "coordinates": [
          -115.68235918050993,
          37.45206175699989
        ]
      }
    },
    {
      "type": "Feature",
      "properties": {
        "norad_id": 42920,
        "name": "FORMOSAT-5",
        "group": "resource",
        "lat": -67.43574991523212,
        "lon": -125.22619182336278,
        "alt_km": 723.3926804401481,
        "timestamp": "2025-12-27T03:58:43.835566+00:00",
        "meta_object_name": "FORMOSAT-5",
        "meta_object_id": "2017-049A",
        "meta_epoch": "2025-12-26T18:33:29.513664",
        "meta_mean_motion": 14.50768665,
        "meta_eccentricity": 0.0009856,
        "meta_inclination": 98.2437,
        "meta_ra_of_asc_node": 74.8091,
        "meta_arg_of_pericenter": 253.4548,
        "meta_mean_anomaly": 106.5565,
        "meta_ephemeris_type": 0,
        "meta_classification_type": "U",
        "meta_norad_cat_id": 42920,
        "meta_element_set_no": 999,
        "meta_rev_at_epoch": 44167,
        "meta_bstar": 7.7222e-05,
        "meta_mean_motion_dot": 2.6e-06,
        "meta_mean_motion_ddot": 0,
        "tle_line1": "1 42920U 17049A   25360.77325826  .00000260  00000+0  77222-4 0  9995",
        "tle_line2": "2 42920  98.2437  74.8091 0009856 253.4548 106.5565 14.50768665441678"
      },
      "geometry": {
        "type": "Point",
        "coordinates": [
          -125.22619182336278,
          -67.43574991523212
        ]
      }
    },
    {
      "type": "Feature",
      "properties": {
        "norad_id": 42969,
        "name": "SENTINEL-5P",
        "group": "resource",
        "lat": 75.68874255178252,
        "lon": 156.91224718646328,
        "alt_km": 819.0224715061022,
        "timestamp": "2025-12-27T03:58:43.835576+00:00",
        "meta_object_name": "SENTINEL-5P",
        "meta_object_id": "2017-064A",
        "meta_epoch": "2025-12-26T19:02:42.148032",
        "meta_mean_motion": 14.19520998,
        "meta_eccentricity": 0.0001058,
        "meta_inclination": 98.7802,
        "meta_ra_of_asc_node": 299.2542,
        "meta_arg_of_pericenter": 91.0768,
        "meta_mean_anomaly": 269.0529,
        "meta_ephemeris_type": 0,
        "meta_classification_type": "U",
        "meta_norad_cat_id": 42969,
        "meta_element_set_no": 999,
        "meta_rev_at_epoch": 42510,
        "meta_bstar": 7.0164e-05,
        "meta_mean_motion_dot": 1.04e-06,
        "meta_mean_motion_ddot": 0,
        "tle_line1": "1 42969U 17064A   25360.79354338  .00000104  00000+0  70164-4 0  9992",
        "tle_line2": "2 42969  98.7802 299.2542 0001058  91.0768 269.0529 14.19520998425107"
      },
      "geometry": {
        "type": "Point",
        "coordinates": [
          156.91224718646328,
          75.68874255178252
        ]
      }
    },
    {
      "type": "Feature",
      "properties": {
        "norad_id": 42987,
        "name": "SKYSAT-C11",
        "group": "resource",
        "lat": 22.963797736710465,
        "lon": 135.85686274605743,
        "alt_km": 421.806467127989,
        "timestamp": "2025-12-27T03:58:43.835586+00:00",
        "meta_object_name": "SKYSAT-C11",
        "meta_object_id": "2017-068A",
        "meta_epoch": "2025-12-26T20:07:20.661312",
        "meta_mean_motion": 15.48062691,
        "meta_eccentricity": 0.0001166,
        "meta_inclination": 97.415,
        "meta_ra_of_asc_node": 138.6846,
        "meta_arg_of_pericenter": 95.3048,
        "meta_mean_anomaly": 264.8335,
        "meta_ephemeris_type": 0,
        "meta_classification_type": "U",
        "meta_norad_cat_id": 42987,
        "meta_element_set_no": 999,
        "meta_rev_at_epoch": 45649,
        "meta_bstar": 0.00043949,
        "meta_mean_motion_dot": 0.00022959,
        "meta_mean_motion_ddot": 0,
        "tle_line1": "1 42987U 17068A   25360.83843358  .00022959  00000+0  43949-3 0  9998",
        "tle_line2": "2 42987  97.4150 138.6846 0001166  95.3048 264.8335 15.48062691456498"
      },
      "geometry": {
        "type": "Point",
        "coordinates": [
          135.85686274605743,
          22.963797736710465
        ]
      }
    },
    {
      "type": "Feature",
      "properties": {
        "norad_id": 42988,
        "name": "SKYSAT-C10",
        "group": "resource",
        "lat": 12.978266107912583,
        "lon": 130.33671609285747,
        "alt_km": 470.2188997658477,
        "timestamp": "2025-12-27T03:58:43.835595+00:00",
        "meta_object_name": "SKYSAT-C10",
        "meta_object_id": "2017-068B",
        "meta_epoch": "2025-12-26T07:32:29.638752",
        "meta_mean_motion": 15.31865933,
        "meta_eccentricity": 0.0003533,
        "meta_inclination": 97.4259,
        "meta_ra_of_asc_node": 131.2058,
        "meta_arg_of_pericenter": 75.9386,
        "meta_mean_anomaly": 284.2248,
        "meta_ephemeris_type": 0,
        "meta_classification_type": "U",
        "meta_norad_cat_id": 42988,
        "meta_element_set_no": 999,
        "meta_rev_at_epoch": 45587,
        "meta_bstar": 0.00043148,
        "meta_mean_motion_dot": 0.00013208,
        "meta_mean_motion_ddot": 0,
        "tle_line1": "1 42988U 17068B   25360.31423193  .00013208  00000+0  43148-3 0  9991",
        "tle_line2": "2 42988  97.4259 131.2058 0003533  75.9386 284.2248 15.31865933455874"
      },
      "geometry": {
        "type": "Point",
        "coordinates": [
          130.33671609285747,
          12.978266107912583
        ]
      }
    }
  ]
}